SHIJIAN-6 01A (SJ-6 01A)
1 28413U 04035A   26072.80380426  .00010200  00000+0  52595-3 0  9999
2 28413  97.5978  99.7091 0008183 104.1313 256.0829 15.16526688173004
SHIJIAN-6 01B (SJ-6 01B)
1 28414U 04035B   26072.97098124  .00001616  00000+0  11612-3 0  9995
2 28414  97.6147  92.0716 0006787 101.7171 258.4817 15.05666414172492
SHIJIAN-6 02A (SJ-6 02A)
1 29505U 06046A   26073.00246297  .00006173  00000+0  32697-3 0  9991
2 29505  97.6496 113.3760 0004763 104.7518 255.4243 15.15768295 57849
SHIJIAN-6 02B (SJ-6 02B)
1 29506U 06046B   26072.96445509  .00002350  00000+0  18838-3 0  9997
2 29506  97.7077 102.6645 0013821  30.0857 330.1158 15.01021872 56451
SHIJIAN-6 03A (SJ-6 03A)
1 33408U 08053A   26072.97827686  .00004167  00000+0  21966-3 0  9998
2 33408  97.8533 103.0077 0011042 348.3714  11.7260 15.16124436948530
SHIJIAN-6 03B (SJ-6 03B)
1 33409U 08053B   26072.96989748  .00003603  00000+0  26502-3 0  9991
2 33409  97.8671  91.2719 0019698   8.8097 351.3470 15.03909215948439
SHIJIAN-6 04A (SJ-6 04A)
1 37179U 10051A   26072.99928205  .00006720  00000+0  34501-3 0  9995
2 37179  97.8382  92.9623 0018691 189.0595 171.0302 15.16713580842510
SHIJIAN-6 04B (SJ-6 04B)
1 37180U 10051B   26072.98154387  .00000433  00000+0  40710-4 0  9993
2 37180  97.8747  77.4150 0009055 277.7452  82.2742 14.99126331841412
GSAT0101 (GALILEO-PFM)  
1 37846U 11060A   26053.46432651 -.00000082  00000+0  00000+0 0  9992
2 37846  57.0318 344.8758 0003975 357.0591   2.9533  1.70475478 89166
SHIJIAN-17 (SJ-17)      
1 41838U 16065A   26071.71796359  .00000054  00000+0  00000+0 0  9992
2 41838   5.5064  73.7601 0001148 325.6027  47.6368  0.99865501 34249
GSAT0207 (GALILEO 15)   
1 41859U 16069A   26072.71887421  .00000034  00000+0  00000+0 0  9999
2 41859  55.4358 103.7267 0005361 309.9075  50.1195  1.70474457 57779
GSAT0219 (GALILEO 23)   
1 43566U 18060C   26067.02636862 -.00000101  00000+0  00000+0 0  9994
2 43566  57.2050 344.5202 0004318 344.0327  15.9782  1.70474822 47462
SHIJIAN-20 (SJ-20)      
1 44910U 19097A   26071.85625134 -.00000002  00000+0  00000+0 0  9995
2 44910   4.6699  76.2395 0001536  16.3150  96.4860  1.00082407 22736
SHIJIAN-21 (SJ-21)      
1 49330U 21094A   26072.98710639 -.00000347  00000+0  00000+0 0  9998
2 49330   4.8865  61.7086 0048014 171.4240  61.5631  1.00263511  4405
SHIJIAN-23 (SJ-23)      
1 55131U 23002A   26072.76993034 -.00000267  00000+0  00000+0 0  9994
2 55131   3.4708  79.5278 0005724 265.1652 240.6077  1.00484158 11551
SHIJIAN-25 (SJ-25)      
1 62485U 25002A   26072.71844697 -.00000348  00000+0  00000+0 0  9991
2 62485   4.8863  61.7143 0048627 166.3864 329.1967  1.00271940  4408
SHIJIAN-26 (SJ-26)      
1 64199U 25115A   26072.93828819  .00006995  00000+0  30253-3 0  9992
2 64199  97.4607 152.1080 0018329 330.5834  29.4369 15.22615444 43947
SHIJIAN-30A (SJ-30A)    
1 66545U 25266A   26072.95011274  .00009754  00000+0  52449-3 0  9994
2 66545  51.7981 265.5259 0011472 306.6475  53.3446 15.15423779 17411
SHIJIAN-30B (SJ-30B)    
1 66546U 25266B   26072.95114797  .00010310  00000+0  55464-3 0  9999
2 66546  51.7965 265.5138 0009402 308.9520  51.0618 15.15360631 17419
SHIJIAN-30C (SJ-30C)    
1 66547U 25266C   26072.95201576  .00010603  00000+0  56822-3 0  9996
2 66547  51.7973 265.5296 0010197 299.7369  60.2592 15.15463214 17419
SHIJIAN-28 (SJ-28)      
1 66549U 25277A   26072.94979554 -.00000366  00000+0  00000+0 0  9996
2 66549   4.7853 273.5720 0000605 175.7995 180.8826  1.00269894  1192
