[ {"OBJECT_NAME": "SHIJIAN-20 (SJ-20)", "NORAD_CAT_ID": 44910, "MEAN_MOTION": 1.00082407, "ECCENTRICITY": 0.0001536, "INCLINATION": 4.6699, "RA_OF_ASC_NODE": 76.2395, "ARG_OF_PERICENTER": 16.315, "MEAN_ANOMALY": 96.486, "BSTAR": 0.0, "EPOCH": "2026-03-12T20:33:00"}, {"OBJECT_NAME": "SHIJIAN-6 01A (SJ-6 01A)", "NORAD_CAT_ID": 28413, "MEAN_MOTION": 15.16526688, "ECCENTRICITY": 0.0008183, "INCLINATION": 97.5978, "RA_OF_ASC_NODE": 99.7091, "ARG_OF_PERICENTER": 104.1313, "MEAN_ANOMALY": 256.0829, "BSTAR": 0.0005259500000000001, "EPOCH": "2026-03-13T19:17:28"}, {"OBJECT_NAME": "SHIJIAN-6 02B (SJ-6 02B)", "NORAD_CAT_ID": 29506, "MEAN_MOTION": 15.01021872, "ECCENTRICITY": 0.0013821, "INCLINATION": 97.7077, "RA_OF_ASC_NODE": 102.6645, "ARG_OF_PERICENTER": 30.0857, "MEAN_ANOMALY": 330.1158, "BSTAR": 0.00018838, "EPOCH": "2026-03-13T23:08:48"}, {"OBJECT_NAME": "SHIJIAN-30A (SJ-30A)", "NORAD_CAT_ID": 66545, "MEAN_MOTION": 15.15423779, "ECCENTRICITY": 0.0011472, "INCLINATION": 51.7981, "RA_OF_ASC_NODE": 265.5259, "ARG_OF_PERICENTER": 306.6475, "MEAN_ANOMALY": 53.3446, "BSTAR": 0.0005244900000000001, "EPOCH": "2026-03-13T22:48:09"}, {"OBJECT_NAME": "SHIJIAN-6 03A (SJ-6 03A)", "NORAD_CAT_ID": 33408, "MEAN_MOTION": 15.16124436, "ECCENTRICITY": 0.0011042, "INCLINATION": 97.8533, "RA_OF_ASC_NODE": 103.0077, "ARG_OF_PERICENTER": 348.3714, "MEAN_ANOMALY": 11.726, "BSTAR": 0.00021966, "EPOCH": "2026-03-13T23:28:43"}, {"OBJECT_NAME": "SHIJIAN-6 04B (SJ-6 04B)", "NORAD_CAT_ID": 37180, "MEAN_MOTION": 14.99126331, "ECCENTRICITY": 0.0009055, "INCLINATION": 97.8747, "RA_OF_ASC_NODE": 77.415, "ARG_OF_PERICENTER": 277.7452, "MEAN_ANOMALY": 82.2742, "BSTAR": 4.071e-05, "EPOCH": "2026-03-13T23:33:25"}, {"OBJECT_NAME": "SHIJIAN-6 02A (SJ-6 02A)", "NORAD_CAT_ID": 29505, "MEAN_MOTION": 15.15768295, "ECCENTRICITY": 0.0004763, "INCLINATION": 97.6496, "RA_OF_ASC_NODE": 113.376, "ARG_OF_PERICENTER": 104.7518, "MEAN_ANOMALY": 255.4243, "BSTAR": 0.00032697, "EPOCH": "2026-03-14T00:03:32"}, {"OBJECT_NAME": "SHIJIAN-6 03B (SJ-6 03B)", "NORAD_CAT_ID": 33409, "MEAN_MOTION": 15.03909215, "ECCENTRICITY": 0.0019698, "INCLINATION": 97.8671, "RA_OF_ASC_NODE": 91.2719, "ARG_OF_PERICENTER": 8.8097, "MEAN_ANOMALY": 351.347, "BSTAR": 0.00026502, "EPOCH": "2026-03-13T23:16:39"}, {"OBJECT_NAME": "SHIJIAN-6 04A (SJ-6 04A)", "NORAD_CAT_ID": 37179, "MEAN_MOTION": 15.1671358, "ECCENTRICITY": 0.0018691, "INCLINATION": 97.8382, "RA_OF_ASC_NODE": 92.9623, "ARG_OF_PERICENTER": 189.0595, "MEAN_ANOMALY": 171.0302, "BSTAR": 0.00034501, "EPOCH": "2026-03-13T23:58:57"}, {"OBJECT_NAME": "SHIJIAN-17 (SJ-17)", "NORAD_CAT_ID": 41838, "MEAN_MOTION": 0.99865501, "ECCENTRICITY": 0.0001148, "INCLINATION": 5.5064, "RA_OF_ASC_NODE": 73.7601, "ARG_OF_PERICENTER": 325.6027, "MEAN_ANOMALY": 47.6368, "BSTAR": 0.0, "EPOCH": "2026-03-12T17:13:52"}, {"OBJECT_NAME": "SHIJIAN-21 (SJ-21)", "NORAD_CAT_ID": 49330, "MEAN_MOTION": 1.00263511, "ECCENTRICITY": 0.0048014, "INCLINATION": 4.8865, "RA_OF_ASC_NODE": 61.7086, "ARG_OF_PERICENTER": 171.424, "MEAN_ANOMALY": 61.5631, "BSTAR": 0.0, "EPOCH": "2026-03-13T23:41:25"}, {"OBJECT_NAME": "SHIJIAN-23 (SJ-23)", "NORAD_CAT_ID": 55131, "MEAN_MOTION": 1.00484158, "ECCENTRICITY": 0.0005724, "INCLINATION": 3.4708, "RA_OF_ASC_NODE": 79.5278, "ARG_OF_PERICENTER": 265.1652, "MEAN_ANOMALY": 240.6077, "BSTAR": 0.0, "EPOCH": "2026-03-13T18:28:41"}, {"OBJECT_NAME": "SHIJIAN-6 01B (SJ-6 01B)", "NORAD_CAT_ID": 28414, "MEAN_MOTION": 15.05666414, "ECCENTRICITY": 0.0006787, "INCLINATION": 97.6147, "RA_OF_ASC_NODE": 92.0716, "ARG_OF_PERICENTER": 101.7171, "MEAN_ANOMALY": 258.4817, "BSTAR": 0.00011612, "EPOCH": "2026-03-13T23:18:12"}, {"OBJECT_NAME": "SHIJIAN-25 (SJ-25)", "NORAD_CAT_ID": 62485, "MEAN_MOTION": 1.0027194, "ECCENTRICITY": 0.0048627, "INCLINATION": 4.8863, "RA_OF_ASC_NODE": 61.7143, "ARG_OF_PERICENTER": 166.3864, "MEAN_ANOMALY": 329.1967, "BSTAR": 0.0, "EPOCH": "2026-03-13T17:14:33"}, {"OBJECT_NAME": "SHIJIAN-26 (SJ-26)", "NORAD_CAT_ID": 64199, "MEAN_MOTION": 15.22615444, "ECCENTRICITY": 0.0018329, "INCLINATION": 97.4607, "RA_OF_ASC_NODE": 152.108, "ARG_OF_PERICENTER": 330.5834, "MEAN_ANOMALY": 29.4369, "BSTAR": 0.00030253, "EPOCH": "2026-03-13T22:31:08"}, {"OBJECT_NAME": "SHIJIAN-30B (SJ-30B)", "NORAD_CAT_ID": 66546, "MEAN_MOTION": 15.15360631, "ECCENTRICITY": 0.0009402, "INCLINATION": 51.7965, "RA_OF_ASC_NODE": 265.5138, "ARG_OF_PERICENTER": 308.952, "MEAN_ANOMALY": 51.0618, "BSTAR": 0.00055464, "EPOCH": "2026-03-13T22:49:39"}, {"OBJECT_NAME": "SHIJIAN-30C (SJ-30C)", "NORAD_CAT_ID": 66547, "MEAN_MOTION": 15.15463214, "ECCENTRICITY": 0.0010197, "INCLINATION": 51.7973, "RA_OF_ASC_NODE": 265.5296, "ARG_OF_PERICENTER": 299.7369, "MEAN_ANOMALY": 60.2592, "BSTAR": 0.0005682199999999999, "EPOCH": "2026-03-13T22:50:54"}, {"OBJECT_NAME": "SHIJIAN-28 (SJ-28)", "NORAD_CAT_ID": 66549, "MEAN_MOTION": 1.00269894, "ECCENTRICITY": 6.05e-05, "INCLINATION": 4.7853, "RA_OF_ASC_NODE": 273.572, "ARG_OF_PERICENTER": 175.7995, "MEAN_ANOMALY": 180.8826, "BSTAR": 0.0, "EPOCH": "2026-03-13T22:47:42"}, {"OBJECT_NAME": "GSAT0101 (GALILEO-PFM)", "NORAD_CAT_ID": 37846, "MEAN_MOTION": 1.70475478, "ECCENTRICITY": 0.0003975, "INCLINATION": 57.0318, "RA_OF_ASC_NODE": 344.8758, "ARG_OF_PERICENTER": 357.0591, "MEAN_ANOMALY": 2.9533, "BSTAR": 0.0, "EPOCH": "2026-02-22T11:08:37"}, {"OBJECT_NAME": "GSAT0219 (GALILEO 23)", "NORAD_CAT_ID": 43566, "MEAN_MOTION": 1.70474822, "ECCENTRICITY": 0.0004318, "INCLINATION": 57.205, "RA_OF_ASC_NODE": 344.5202, "ARG_OF_PERICENTER": 344.0327, "MEAN_ANOMALY": 15.9782, "BSTAR": 0.0, "EPOCH": "2026-03-08T00:37:58"}, {"OBJECT_NAME": "GSAT0207 (GALILEO 15)", "NORAD_CAT_ID": 41859, "MEAN_MOTION": 1.70474457, "ECCENTRICITY": 0.0005361, "INCLINATION": 55.4358, "RA_OF_ASC_NODE": 103.7267, "ARG_OF_PERICENTER": 309.9075, "MEAN_ANOMALY": 50.1195, "BSTAR": 0.0, "EPOCH": "2026-03-13T17:15:10"}]